CCSDS_OMM_VERS = 2.0
CREATION_DATE  = 
ORIGINATOR     = 

OBJECT_NAME    = ISS OBJECT XX
OBJECT_ID      = 1998-067XX
CENTER_NAME    = EARTH
REF_FRAME      = TEME
TIME_SYSTEM    = UTC
MEAN_ELEMENT_THEORY = SGP/SGP4

EPOCH          = 2026-03-06T09:44:44.607840
MEAN_MOTION    = 15.73534846
ECCENTRICITY   = .00070254
INCLINATION    = 51.6211
RA_OF_ASC_NODE = 80.9498
ARG_OF_PERICENTER = 63.2110
MEAN_ANOMALY   = 296.9607

EPHEMERIS_TYPE = 0
CLASSIFICATION_TYPE = U
NORAD_CAT_ID   = 66911
ELEMENT_SET_NO = 999
REV_AT_EPOCH   = 1467
BSTAR          = .16386152E-2
MEAN_MOTION_DOT = .240114E-2
MEAN_MOTION_DDOT = 0

CCSDS_OMM_VERS = 2.0
CREATION_DATE  = 
ORIGINATOR     = 

OBJECT_NAME    = ISS OBJECT XY
OBJECT_ID      = 1998-067XY
CENTER_NAME    = EARTH
REF_FRAME      = TEME
TIME_SYSTEM    = UTC
MEAN_ELEMENT_THEORY = SGP/SGP4

EPOCH          = 2026-03-06T10:47:05.015040
MEAN_MOTION    = 15.62981143
ECCENTRICITY   = .0003032
INCLINATION    = 51.6268
RA_OF_ASC_NODE = 83.5178
ARG_OF_PERICENTER = 70.8849
MEAN_ANOMALY   = 289.2473

EPHEMERIS_TYPE = 0
CLASSIFICATION_TYPE = U
NORAD_CAT_ID   = 66912
ELEMENT_SET_NO = 999
REV_AT_EPOCH   = 1464
BSTAR          = .98520063E-3
MEAN_MOTION_DOT = .91647E-3
MEAN_MOTION_DDOT = 0

CCSDS_OMM_VERS = 2.0
CREATION_DATE  = 
ORIGINATOR     = 

OBJECT_NAME    = ISS OBJECT XZ
OBJECT_ID      = 1998-067XZ
CENTER_NAME    = EARTH
REF_FRAME      = TEME
TIME_SYSTEM    = UTC
MEAN_ELEMENT_THEORY = SGP/SGP4

EPOCH          = 2026-03-07T00:32:42.960480
MEAN_MOTION    = 15.51569272
ECCENTRICITY   = .0009427
INCLINATION    = 51.6308
RA_OF_ASC_NODE = 85.0994
ARG_OF_PERICENTER = 176.7585
MEAN_ANOMALY   = 183.3468

EPHEMERIS_TYPE = 0
CLASSIFICATION_TYPE = U
NORAD_CAT_ID   = 67683
ELEMENT_SET_NO = 999
REV_AT_EPOCH   = 437
BSTAR          = .65116E-3
MEAN_MOTION_DOT = .39087E-3
MEAN_MOTION_DDOT = 0

CCSDS_OMM_VERS = 2.0
CREATION_DATE  = 
ORIGINATOR     = 

OBJECT_NAME    = GXIBA-1
OBJECT_ID      = 1998-067YA
CENTER_NAME    = EARTH
REF_FRAME      = TEME
TIME_SYSTEM    = UTC
MEAN_ELEMENT_THEORY = SGP/SGP4

EPOCH          = 2026-03-07T01:31:56.355744
MEAN_MOTION    = 15.53815499
ECCENTRICITY   = .0010893
INCLINATION    = 51.6298
RA_OF_ASC_NODE = 84.6245
ARG_OF_PERICENTER = 167.0714
MEAN_ANOMALY   = 193.0557

EPHEMERIS_TYPE = 0
CLASSIFICATION_TYPE = U
NORAD_CAT_ID   = 67684
ELEMENT_SET_NO = 999
REV_AT_EPOCH   = 438
BSTAR          = .12347E-2
MEAN_MOTION_DOT = .81342E-3
MEAN_MOTION_DDOT = 0

CCSDS_OMM_VERS = 2.0
CREATION_DATE  = 
ORIGINATOR     = 

OBJECT_NAME    = CORAL
OBJECT_ID      = 1998-067YB
CENTER_NAME    = EARTH
REF_FRAME      = TEME
TIME_SYSTEM    = UTC
MEAN_ELEMENT_THEORY = SGP/SGP4

EPOCH          = 2026-03-06T08:59:53.384352
MEAN_MOTION    = 15.51836923
ECCENTRICITY   = .00113315
INCLINATION    = 51.6303
RA_OF_ASC_NODE = 88.2731
ARG_OF_PERICENTER = 171.0094
MEAN_ANOMALY   = 189.1100

EPHEMERIS_TYPE = 0
CLASSIFICATION_TYPE = U
NORAD_CAT_ID   = 67685
ELEMENT_SET_NO = 999
REV_AT_EPOCH   = 427
BSTAR          = .72551429E-3
MEAN_MOTION_DOT = .4409E-3
MEAN_MOTION_DDOT = 0

CCSDS_OMM_VERS = 2.0
CREATION_DATE  = 
ORIGINATOR     = 

OBJECT_NAME    = ISS OBJECT YC
OBJECT_ID      = 1998-067YC
CENTER_NAME    = EARTH
REF_FRAME      = TEME
TIME_SYSTEM    = UTC
MEAN_ELEMENT_THEORY = SGP/SGP4

EPOCH          = 2026-03-07T01:53:11.859936
MEAN_MOTION    = 15.52378490
ECCENTRICITY   = .0007821
INCLINATION    = 51.6302
RA_OF_ASC_NODE = 84.7241
ARG_OF_PERICENTER = 140.7599
MEAN_ANOMALY   = 219.3959

EPHEMERIS_TYPE = 0
CLASSIFICATION_TYPE = U
NORAD_CAT_ID   = 67686
ELEMENT_SET_NO = 999
REV_AT_EPOCH   = 438
BSTAR          = .87809E-3
MEAN_MOTION_DOT = .54518E-3
MEAN_MOTION_DDOT = 0

CCSDS_OMM_VERS = 2.0
CREATION_DATE  = 
ORIGINATOR     = 

OBJECT_NAME    = LEOPARD
OBJECT_ID      = 1998-067YD
CENTER_NAME    = EARTH
REF_FRAME      = TEME
TIME_SYSTEM    = UTC
MEAN_ELEMENT_THEORY = SGP/SGP4

EPOCH          = 2026-03-06T10:35:07.082880
MEAN_MOTION    = 15.51685674
ECCENTRICITY   = .00077795
INCLINATION    = 51.6311
RA_OF_ASC_NODE = 87.9659
ARG_OF_PERICENTER = 143.5641
MEAN_ANOMALY   = 216.5880

EPHEMERIS_TYPE = 0
CLASSIFICATION_TYPE = U
NORAD_CAT_ID   = 67687
ELEMENT_SET_NO = 999
REV_AT_EPOCH   = 420
BSTAR          = .73033201E-3
MEAN_MOTION_DOT = .44085E-3
MEAN_MOTION_DDOT = 0

CCSDS_OMM_VERS = 2.0
CREATION_DATE  = 
ORIGINATOR     = 

OBJECT_NAME    = ISS OBJECT YE
OBJECT_ID      = 1998-067YE
CENTER_NAME    = EARTH
REF_FRAME      = TEME
TIME_SYSTEM    = UTC
MEAN_ELEMENT_THEORY = SGP/SGP4

EPOCH          = 2026-03-07T01:56:12.938784
MEAN_MOTION    = 15.52156341
ECCENTRICITY   = .0007742
INCLINATION    = 51.6306
RA_OF_ASC_NODE = 84.7377
ARG_OF_PERICENTER = 141.0752
MEAN_ANOMALY   = 219.0796

EPHEMERIS_TYPE = 0
CLASSIFICATION_TYPE = U
NORAD_CAT_ID   = 67688
ELEMENT_SET_NO = 999
REV_AT_EPOCH   = 430
BSTAR          = .81747E-3
MEAN_MOTION_DOT = .50287E-3
MEAN_MOTION_DDOT = 0

CCSDS_OMM_VERS = 2.0
CREATION_DATE  = 
ORIGINATOR     = 

OBJECT_NAME    = CREW DRAGON 12
OBJECT_ID      = 2026-031A
CENTER_NAME    = EARTH
REF_FRAME      = TEME
TIME_SYSTEM    = UTC
MEAN_ELEMENT_THEORY = SGP/SGP4

EPOCH          = 2026-03-06T20:49:01.409088
MEAN_MOTION    = 15.48482048
ECCENTRICITY   = .0008109
INCLINATION    = 51.6318
RA_OF_ASC_NODE = 86.3097
ARG_OF_PERICENTER = 164.5613
MEAN_ANOMALY   = 195.5624

EPHEMERIS_TYPE = 0
CLASSIFICATION_TYPE = U
NORAD_CAT_ID   = 67796
ELEMENT_SET_NO = 999
REV_AT_EPOCH   = 55577
BSTAR          = .16627E-3
MEAN_MOTION_DOT = .8564E-4
MEAN_MOTION_DDOT = 0

