ISS OBJECT XX           
1 66911U 98067XX  26065.40607185  .00240114  00000+0  16386-2 0  9990
2 66911  51.6211  80.9498 0007025  63.2110 296.9607 15.73534846 14679
ISS OBJECT XY           
1 66912U 98067XY  26065.44936360  .00091647  00000+0  98520-3 0  9991
2 66912  51.6268  83.5178 0003032  70.8849 289.2473 15.62981143 14640
ISS OBJECT XZ           
1 67683U 98067XZ  26066.02271945  .00039087  00000+0  65116-3 0  9998
2 67683  51.6308  85.0994 0009427 176.7585 183.3468 15.51569272  4371
GXIBA-1                 
1 67684U 98067YA  26066.06384671  .00081342  00000+0  12347-2 0  9992
2 67684  51.6298  84.6245 0010893 167.0714 193.0557 15.53815499  4385
CORAL                   
1 67685U 98067YB  26065.37492343  .00044090  00000+0  72551-3 0  9995
2 67685  51.6303  88.2731 0011331 171.0094 189.1100 15.51836923  4278
ISS OBJECT YC           
1 67686U 98067YC  26066.07860949  .00054518  00000+0  87809-3 0  9993
2 67686  51.6302  84.7241 0007821 140.7599 219.3959 15.52378490  4388
LEOPARD                 
1 67687U 98067YD  26065.44105420  .00044085  00000+0  73033-3 0  9992
2 67687  51.6311  87.9659 0007779 143.5641 216.5880 15.51685674  4205
ISS OBJECT YE           
1 67688U 98067YE  26066.08070531  .00050287  00000+0  81747-3 0  9990
2 67688  51.6306  84.7377 0007742 141.0752 219.0796 15.52156341  4308
CREW DRAGON 12          
1 67796U 26031A   26065.86737742  .00008564  00000+0  16627-3 0  9997
2 67796  51.6318  86.3097 0008109 164.5613 195.5624 15.48482048555773
